ANIK F2                 
1 28378U 04027A   24347.50069258 -.00000035  00000+0  00000+0 0  9993
2 28378   1.8595  86.8263 0000332 145.2913 278.6817  1.00271079 35738
AMC-15                  
1 28446U 04041A   24347.21608163 -.00000073  00000+0  00000+0 0  9999
2 28446   0.0333  48.3436 0002668 198.9734 166.8352  1.00269749 73779
NSS-10                  
1 28526U 05003A   24347.15795854 -.00000239  00000+0  00000+0 0  9998
2 28526   5.0651  77.1000 0003119 191.4846 192.1754  1.00269766 47629
XTAR-EUR                
1 28542U 05005A   24346.92505272  .00000165  00000+0  00000+0 0  9992
2 28542   2.9076  83.6010 0006700 194.4748 165.0724  1.00273305 72651
XM-3 (RHYTHM)           
1 28626U 05008A   24347.21999126 -.00000189  00000+0  00000+0 0  9993
2 28626   0.0137 283.1595 0004792 303.1361 209.1684  1.00267639 37081
INMARSAT 4-F1           
1 28628U 05009A   24347.48661792  .00000044  00000+0  00000+0 0  9999
2 28628   4.4730  41.6898 0003169 229.0307 164.2033  1.00271646 72144
DIRECTV 8               
1 28659U 05019A   24347.21438139  .00000017  00000+0  00000+0 0  9992
2 28659   0.0138  39.6045 0003106 219.7205 140.2244  1.00269634 71531
GALAXY 28 (G-28)        
1 28702U 05022A   24347.50503661 -.00000171  00000+0  00000+0 0  9992
2 28702   1.8730  85.8028 0006780 183.4708 265.2329  1.00271070 46459
THAICOM 4               
1 28786U 05028A   24347.26230179 -.00000347  00000+0  00000+0 0  9999
2 28786   0.0171 333.3310 0002528 280.7189  41.3503  1.00270910 46714
GALAXY 14 (G-14)        
1 28790U 05030A   24347.21160397  .00000067  00000+0  00000+0 0  9994
2 28790   3.5959  81.6312 0003404 162.3311 349.7872  0.98968416 70769
ANIK F1R                
1 28868U 05036A   24347.50147450 -.00000061  00000+0  00000+0 0  9998
2 28868   2.8936  83.4468 0001508 177.3176 254.1745  1.00271324 40924
SYRACUSE 3A             
1 28885U 05041B   24347.52701740  .00000143  00000+0  00000+0 0  9993
2 28885   3.2317  82.7093 0002552 181.5807  28.9328  1.00271110 70217
INMARSAT 4-F2           
1 28899U 05044A   24346.97950299 -.00000248  00000+0  00000+0 0  9991
2 28899   4.3925  43.0209 0003033 219.3128 314.9546  1.00271245 69980
SPACEWAY 2              
1 28903U 05046B   24347.55047514 -.00000272  00000+0  00000+0 0  9998
2 28903   4.0539  78.0660 0002502  88.4750 253.1873  0.99064351 45806
METEOSAT-9 (MSG-2)      
1 28912U 05049B   24331.84702219  .00000144  00000+0  00000+0 0  9993
2 28912   8.0635  59.4636 0001814 203.9464 153.5423  1.00276594  1313
EUTELSAT 174A           
1 28924U 05052A   24347.56993944  .00000023  00000+0  00000+0 0  9999
2 28924   2.8162  83.3559 0006668 177.3340 200.2375  1.00271390 46800
ECHOSTAR 10             
1 28935U 06003A   24347.50086635 -.00000040  00000+0  00000+0 0  9992
2 28935   0.0173 320.4117 0001570 268.4146 282.9913  1.00270677 68932
SPAINSAT                
1 28945U 06007A   24346.85801716 -.00000200  00000+0  00000+0 0  9997
2 28945   0.0205 255.5611 0005635 353.1497 111.2441  1.00271242 68684
EUTELSAT HOTBIRD 13E    
1 28946U 06007B   24340.22991997 -.00000188  00000+0  00000+0 0  9999
2 28946   0.6535  94.9062 0026160  17.8962  28.4898  0.99624072 68729
JCSAT-5A                
1 29045U 06010A   24347.53660625 -.00000313  00000+0  00000+0 0  9996
2 29045   0.0230   0.3270 0002255 280.0906 126.5218  1.00269838 68239
ASTRA 1KR               
1 29055U 06012A   24347.52658300  .00000135  00000+0  00000+0 0  9996
2 29055   0.0303 303.0439 0005849 316.5181  30.9419  1.00274450 40184
EWS-G1 (GOES 13)        
1 29155U 06018A   24347.54117892 -.00000002  00000+0  00000+0 0  9995
2 29155   3.0924  83.1439 0064299 256.9108  28.6820  0.98828037 37798
GALAXY 16 (G-16)        
1 29236U 06023A   24347.50312524 -.00000111  00000+0  00000+0 0  9997
2 29236   0.0434 139.3413 0002839 117.4683 267.0103  1.00270435 67443
EUTELSAT HOTBIRD 13B    
1 29270U 06032A   24347.52936317  .00000170  00000+0  00000+0 0  9993
2 29270   0.2330  85.8407 0004188 188.3070  31.2325  1.00268705 41774
JCSAT-3A                
1 29272U 06033A   24346.97646216 -.00000329  00000+0  00000+0 0  9997
2 29272   0.0196 339.5308 0002498 279.6055 301.5776  1.00271315 42205
SYRACUSE 3B             
1 29273U 06033B   24347.52328153  .00000036  00000+0  00000+0 0  9991
2 29273   1.4815  87.1600 0005720 183.1917   3.0767  1.00272816 67148
KOREASAT 5 (MUGUNGWHA 5)
1 29349U 06034A   24347.47375962 -.00000343  00000+0  00000+0 0  9992
2 29349   0.3522  92.0546 0002031 199.5716  73.6441  1.00269033 35783
DIRECTV 9S              
1 29494U 06043A   24347.50269083 -.00000098  00000+0  00000+0 0  9990
2 29494   0.9922  87.6238 0003182 173.7709 260.0650  1.00270635 45859
OPTUS D1                
1 29495U 06043B   24347.55327325 -.00000169  00000+0  00000+0 0  9999
2 29495   1.6070  86.5706 0003887 173.6974 172.6620  1.00271087 66585
BADR-4                  
1 29526U 06051A   24347.31356164  .00000160  00000+0  00000+0 0  9990
2 29526   0.5761  85.8246 0008369 202.7267 292.0593  1.00271041 45735
WILDBLUE-1              
1 29643U 06054A   24347.50069258 -.00000034  00000+0  00000+0 0  9990
2 29643   1.3741  87.7376 0002056 160.6977 262.3299  1.00271344 48264
SKYNET 5A               
1 30794U 07007B   24347.49840826 -.00000259  00000+0  00000+0 0  9993
2 30794   3.8902  80.4022 0004417 192.2421  83.6756  1.00271607 65167
ANIK F3                 
1 31102U 07009A   24347.47341172  .00000014  00000+0  00000+0 0  9995
2 31102   0.0286  75.7999 0001987 197.9302 219.6494  1.00270273 41032
ASTRA 1L                
1 31306U 07016A   24347.24066885  .00000135  00000+0  00000+0 0  9993
2 31306   0.0535 329.4379 0006825 310.3958 267.4462  1.00273527 39454
GALAXY 17 (G-17)        
1 31307U 07016B   24347.50590542 -.00000192  00000+0  00000+0 0  9999
2 31307   1.5695  86.9988 0007245 194.9967 256.8432  1.00271447 64278
ZHONGXING-6B            
1 31800U 07031A   24347.53105250 -.00000347  00000+0  00000+0 0  9997
2 31800   0.9722  88.5995 0004964 183.5747 115.9887  1.00266900 63895
DIRECTV 10              
1 31862U 07032A   24346.57326130 -.00000087  00000+0  00000+0 0  9992
2 31862   0.0388 161.7832 0000876  53.7602 328.8178  1.00271248 40054
BSAT-3A                 
1 32019U 07036B   24347.40813225 -.00000335  00000+0  00000+0 0  9996
2 32019   0.0401 194.3998 0004620  51.0125  92.9528  1.00269685 44999
OPTUS D2                
1 32252U 07044A   24347.54216128 -.00000095  00000+0  00000+0 0  9991
2 32252   0.6432  89.1982 0007178 178.0913 169.7387  1.00271287 63031
INTELSAT 11 (IS-11)     
1 32253U 07044B   24347.29983450 -.00000254  00000+0  00000+0 0  9990
2 32253   2.1257  85.5335 0004416 189.9480 230.9449  1.00271610 62969
WGS F1 (USA 195)        
1 32258U 07046A   24347.22841868 -.00000252  00000+0  00000+0 0  9994
2 32258   0.1035  92.2889 0000770 133.8546 254.9986  1.00268125 46809
SKYNET 5B               
1 32294U 07056B   24347.52771244  .00000153  00000+0  00000+0 0  9997
2 32294   3.8426  80.0616 0003766 175.7505  40.9411  1.00271420 62664
ASTRA 4A                
1 32299U 07057A   24347.30930449  .00000048  00000+0  00000+0 0  9996
2 32299   0.0173  16.8902 0002814 237.1946 303.5803  1.00269982 46112
HORIZONS-2              
1 32388U 07063B   24347.50807743 -.00000238  00000+0  00000+0 0  9996
2 32388   1.1739  87.5022 0002487 188.9470 274.3554  1.00271403 62285
THURAYA-3               
1 32404U 08001A   24347.04702035 -.00000291  00000+0  00000+0 0  9994
2 32404   5.1021  33.7552 0002744 233.3015 289.6062  1.00269709 61951
THOR 5                  
1 32487U 08006A   24345.42202127  .00000006  00000+0  00000+0 0  9990
2 32487   0.0330 263.5111 0002499   2.1782 325.1438  1.00265964 61764
AMC-14                  
1 32708U 08011A   24346.79632916  .00000068  00000+0  00000+0 0  9994
2 32708  23.3204  27.1679 0037949 350.5234   7.4590  1.00273695 62626
DIRECTV 11              
1 32729U 08013A   24347.21721108 -.00000110  00000+0  00000+0 0  9998
2 32729   0.0117 225.1452 0000068 170.3247  24.9570  1.00269707 40051
ICO G1                  
1 32763U 08016A   24346.64676227 -.00000160  00000+0  00000+0 0  9991
2 32763   5.1791  36.1376 0002162 226.3471 318.3408  1.00270417 60924
VINASAT-1               
1 32767U 08018A   24346.36056150 -.00000312  00000+0  00000+0 0  9992
2 32767   0.0179 315.1819 0002185 317.6683  69.4604  1.00271419 61047
STAR ONE C2             
1 32768U 08018B   24347.50981505 -.00000261  00000+0  00000+0 0  9994
2 32768   0.0284 335.5094 0002806 286.4290 298.2937  1.00269161 61124
AMOS-3                  
1 32794U 08022A   24347.47226171 -.00000020  00000+0  00000+0 0  9998
2 32794   0.0246 267.2015 0003035 345.3553 354.9930  1.00270113 76800
GALAXY 18 (G-18)        
1 32951U 08024A   24347.49834681  .00000040  00000+0  00000+0 0  9999
2 32951   0.0176 324.4373 0003376 303.8826 229.7686  1.00271973 40320
ZHONGXING-9             
1 33051U 08028A   24347.54109205 -.00000232  00000+0  00000+0 0  9992
2 33051   0.0185  13.4905 0004662 266.1332  89.0833  1.00270320 60508
SKYNET 5C               
1 33055U 08030A   24347.30478670 -.00000126  00000+0  00000+0 0  9990
2 33055   2.3676  83.4683 0005058 189.0033 260.9302  1.00270240 60426
TURKSAT 3A              
1 33056U 08030B   24347.17377081  .00000161  00000+0  00000+0 0  9998
2 33056   0.0527 114.5670 0003295 139.6084 291.7839  1.00274167 46824
INTELSAT 25 (IS-25)     
1 33153U 08034A   24347.44500214 -.00000209  00000+0  00000+0 0  9990
2 33153   1.2807  87.1813 0003352 181.8634 301.3000  1.00271774 60166
BADR-6                  
1 33154U 08034B   24347.50008441  .00000062  00000+0  00000+0 0  9999
2 33154   1.4222  85.4718 0003752 305.8767 116.3199  0.98742403 60222
ECHOSTAR 11             
1 33207U 08035A   24347.42945051 -.00000041  00000+0  00000+0 0  9995
2 33207   0.0288  70.2532 0002654 178.1850 237.7954  1.00270188 45688
